start=new Date('2022-10-11T00:00:00.000Z').valueOf();
sats=[{"TLE_LINE2":"2 51802  53.2162 181.2756 0001873  49.3184 310.7970 15.08846835 35862","OBJECT_NAME":"STARLINK-3557","SITE":"AFWTR","NORAD_CAT_ID":"51802","SEMIMAJOR_AXIS":"6917.859","TIME_SYSTEM":"UTC","MEAN_ANOMALY":"310.7970","DECAY_DATE":null,"FILE":"3601772","MEAN_MOTION_DOT":"-0.00001777","PERIAPSIS":"538.429","LAUNCH_DATE":"2022-02-25","OBJECT_TYPE":"PAYLOAD","ARG_OF_PERICENTER":"49.3184","BSTAR":"-0.00009357600000","CLASSIFICATION_TYPE":"U","GP_ID":"214721132","OBJECT_ID":"2022-017AL","REF_FRAME":"TEME","APOAPSIS":"541.020","ELEMENT_SET_NO":"999","RCS_SIZE":"LARGE","MEAN_MOTION_DDOT":"0.0000000000000","INCLINATION":"53.2162","EPHEMERIS_TYPE":"0","MEAN_MOTION":"15.08846835","PERIOD":"95.437","COUNTRY_CODE":"US","TLE_LINE1":"1 51802U 22017AL  22283.99471525 -.00001777  00000-0 -93576-4 0  9995","REV_AT_EPOCH":"3586","RA_OF_ASC_NODE":"181.2756","CENTER_NAME":"EARTH","EPOCH":"2022-10-10T23:52:23.397600","ECCENTRICITY":"0.00018730","MEAN_ELEMENT_THEORY":"SGP4"},{"TLE_LINE1":"1 51803U 22017AM  22283.43440246  .00000860  00000-0  72142-4 0  9997","ELEMENT_SET_NO":"999","RCS_SIZE":"LARGE","INCLINATION":"53.2173","MEAN_MOTION_DDOT":"0.0000000000000","MEAN_MOTION":"15.08841144","EPHEMERIS_TYPE":"0","PERIOD":"95.437","COUNTRY_CODE":"US","MEAN_ELEMENT_THEORY":"SGP4","REV_AT_EPOCH":"3577","RA_OF_ASC_NODE":"183.7730","CENTER_NAME":"EARTH","EPOCH":"2022-10-10T10:25:32.372544","ECCENTRICITY":"0.00016930","TIME_SYSTEM":"UTC","SEMIMAJOR_AXIS":"6917.877","DECAY_DATE":null,"MEAN_ANOMALY":"307.5208","FILE":"3600948","OBJECT_NAME":"STARLINK-3544","TLE_LINE2":"2 51803  53.2173 183.7730 0001693  52.5938 307.5208 15.08841144 35773","NORAD_CAT_ID":"51803","SITE":"AFWTR","BSTAR":"0.00007214200000","CLASSIFICATION_TYPE":"U","OBJECT_ID":"2022-017AM","GP_ID":"214676928","REF_FRAME":"TEME","APOAPSIS":"540.913","MEAN_MOTION_DOT":"0.00000860","LAUNCH_DATE":"2022-02-25","PERIAPSIS":"538.571","OBJECT_TYPE":"PAYLOAD","ARG_OF_PERICENTER":"52.5938"},{"CENTER_NAME":"EARTH","RA_OF_ASC_NODE":"162.2334","REV_AT_EPOCH":"3606","ECCENTRICITY":"0.00011960","EPOCH":"2022-10-10T18:41:00.684960","MEAN_ELEMENT_THEORY":"SGP4","EPHEMERIS_TYPE":"0","MEAN_MOTION":"15.08841570","INCLINATION":"53.2170","MEAN_MOTION_DDOT":"0.0000000000000","RCS_SIZE":"LARGE","ELEMENT_SET_NO":"999","COUNTRY_CODE":"US","PERIOD":"95.437","TLE_LINE1":"1 51804U 22017AN  22283.77848015  .00001270  00000-0  97863-4 0  9994","OBJECT_TYPE":"PAYLOAD","PERIAPSIS":"538.913","LAUNCH_DATE":"2022-02-25","MEAN_MOTION_DOT":"0.00001270","ARG_OF_PERICENTER":"84.5330","CLASSIFICATION_TYPE":"U","BSTAR":"0.00009786300000","APOAPSIS":"540.568","REF_FRAME":"TEME","OBJECT_ID":"2022-017AN","GP_ID":"214719179","TLE_LINE2":"2 51804  53.2170 162.2334 0001196  84.5330 275.5799 15.08841570 36067","OBJECT_NAME":"STARLINK-3601","SITE":"AFWTR","NORAD_CAT_ID":"51804","SEMIMAJOR_AXIS":"6917.876","TIME_SYSTEM":"UTC","FILE":"3601747","DECAY_DATE":null,"MEAN_ANOMALY":"275.5799"},{"MEAN_ELEMENT_THEORY":"SGP4","RA_OF_ASC_NODE":"161.9488","REV_AT_EPOCH":"3616","CENTER_NAME":"EARTH","EPOCH":"2022-10-10T20:11:06.001152","ECCENTRICITY":"0.00018030","TLE_LINE1":"1 51805U 22017AP  22283.84104168  .00001467  00000-0  11025-3 0  9990","RCS_SIZE":"LARGE","ELEMENT_SET_NO":"999","MEAN_MOTION":"15.08842974","EPHEMERIS_TYPE":"0","INCLINATION":"53.2162","MEAN_MOTION_DDOT":"0.0000000000000","PERIOD":"95.437","COUNTRY_CODE":"US","CLASSIFICATION_TYPE":"U","BSTAR":"0.00011025000000","REF_FRAME":"TEME","GP_ID":"214717946","OBJECT_ID":"2022-017AP","APOAPSIS":"540.984","MEAN_MOTION_DOT":"0.00001467","OBJECT_TYPE":"PAYLOAD","LAUNCH_DATE":"2022-02-25","PERIAPSIS":"538.489","ARG_OF_PERICENTER":"54.4941","SEMIMAJOR_AXIS":"6917.871","TIME_SYSTEM":"UTC","DECAY_DATE":null,"MEAN_ANOMALY":"305.6219","FILE":"3601747","TLE_LINE2":"2 51805  53.2162 161.9488 0001803  54.4941 305.6219 15.08842974 36166","OBJECT_NAME":"STARLINK-3605","SITE":"AFWTR","NORAD_CAT_ID":"51805"},{"ECCENTRICITY":"0.00018130","EPOCH":"2022-10-10T03:01:43.781952","CENTER_NAME":"EARTH","REV_AT_EPOCH":"3587","RA_OF_ASC_NODE":"175.1745","MEAN_ELEMENT_THEORY":"SGP4","COUNTRY_CODE":"US","PERIOD":"95.438","MEAN_MOTION_DDOT":"0.0000000000000","INCLINATION":"53.2167","EPHEMERIS_TYPE":"0","MEAN_MOTION":"15.08836451","ELEMENT_SET_NO":"999","RCS_SIZE":"LARGE","TLE_LINE1":"1 51806U 22017AQ  22283.12620118  .00000998  00000-0  80820-4 0  9998","ARG_OF_PERICENTER":"54.1758","LAUNCH_DATE":"2022-02-25","PERIAPSIS":"538.502","OBJECT_TYPE":"PAYLOAD","MEAN_MOTION_DOT":"0.00000998","APOAPSIS":"541.010","OBJECT_ID":"2022-017AQ","GP_ID":"214606971","REF_FRAME":"TEME","BSTAR":"0.00008082000000","CLASSIFICATION_TYPE":"U","NORAD_CAT_ID":"51806","SITE":"AFWTR","OBJECT_NAME":"STARLINK-3581","TLE_LINE2":"2 51806  53.2167 175.1745 0001813  54.1758 305.9402 15.08836451 35876","FILE":"3598910","MEAN_ANOMALY":"305.9402","DECAY_DATE":null,"SEMIMAJOR_AXIS":"6917.891","TIME_SYSTEM":"UTC"},{"ARG_OF_PERICENTER":"38.5655","OBJECT_TYPE":"PAYLOAD","LAUNCH_DATE":"2022-02-25","PERIAPSIS":"538.149","MEAN_MOTION_DOT":"0.00001903","APOAPSIS":"541.335","REF_FRAME":"TEME","OBJECT_ID":"2022-017AR","GP_ID":"214606822","CLASSIFICATION_TYPE":"U","BSTAR":"0.00013766000000","SITE":"AFWTR","NORAD_CAT_ID":"51807","TLE_LINE2":"2 51807  53.2161 175.1414 0002303  38.5655 321.5502 15.08841133 35925","OBJECT_NAME":"STARLINK-3606","FILE":"3598910","MEAN_ANOMALY":"321.5502","DECAY_DATE":null,"SEMIMAJOR_AXIS":"6917.877","TIME_SYSTEM":"UTC","ECCENTRICITY":"0.00023030","EPOCH":"2022-10-10T03:12:19.806048","CENTER_NAME":"EARTH","RA_OF_ASC_NODE":"175.1414","REV_AT_EPOCH":"3592","MEAN_ELEMENT_THEORY":"SGP4","COUNTRY_CODE":"US","PERIOD":"95.437","MEAN_MOTION":"15.08841133","EPHEMERIS_TYPE":"0","MEAN_MOTION_DDOT":"0.0000000000000","INCLINATION":"53.2161","RCS_SIZE":"LARGE","ELEMENT_SET_NO":"999","TLE_LINE1":"1 51807U 22017AR  22283.13356257  .00001903  00000-0  13766-3 0  9991"},{"ECCENTRICITY":"0.00015990","EPOCH":"2022-10-10T20:20:22.665120","CENTER_NAME":"EARTH","RA_OF_ASC_NODE":"171.9333","REV_AT_EPOCH":"3588","MEAN_ELEMENT_THEORY":"SGP4","COUNTRY_CODE":"US","PERIOD":"95.438","MEAN_MOTION":"15.08837232","EPHEMERIS_TYPE":"0","INCLINATION":"53.2148","MEAN_MOTION_DDOT":"0.0000000000000","RCS_SIZE":"LARGE","ELEMENT_SET_NO":"999","TLE_LINE1":"1 51808U 22017AS  22283.84748455  .00000184  00000-0  29642-4 0  9996","ARG_OF_PERICENTER":"58.1832","OBJECT_TYPE":"PAYLOAD","LAUNCH_DATE":"2022-02-25","PERIAPSIS":"538.648","MEAN_MOTION_DOT":"0.00000184","APOAPSIS":"540.860","REF_FRAME":"TEME","GP_ID":"214719680","OBJECT_ID":"2022-017AS","CLASSIFICATION_TYPE":"U","BSTAR":"0.00002964200000","SITE":"AFWTR","NORAD_CAT_ID":"51808","OBJECT_NAME":"STARLINK-3609","TLE_LINE2":"2 51808  53.2148 171.9333 0001599  58.1832 301.9316 15.08837232 35881","FILE":"3601747","DECAY_DATE":null,"MEAN_ANOMALY":"301.9316","SEMIMAJOR_AXIS":"6917.889","TIME_SYSTEM":"UTC"},{"ECCENTRICITY":"0.00017410","EPOCH":"2022-10-10T09:28:34.282272","CENTER_NAME":"EARTH","REV_AT_EPOCH":"3591","RA_OF_ASC_NODE":"173.9630","MEAN_ELEMENT_THEORY":"SGP4","COUNTRY_CODE":"US","PERIOD":"95.438","INCLINATION":"53.2158","MEAN_MOTION_DDOT":"0.0000000000000","MEAN_MOTION":"15.08835013","EPHEMERIS_TYPE":"0","ELEMENT_SET_NO":"999","RCS_SIZE":"LARGE","TLE_LINE1":"1 51809U 22017AT  22283.39484123  .00000969  00000-0  78975-4 0  9990","ARG_OF_PERICENTER":"49.9472","PERIAPSIS":"538.556","LAUNCH_DATE":"2022-02-25","OBJECT_TYPE":"PAYLOAD","MEAN_MOTION_DOT":"0.00000969","APOAPSIS":"540.965","GP_ID":"214693181","OBJECT_ID":"2022-017AT","REF_FRAME":"TEME","BSTAR":"0.00007897500000","CLASSIFICATION_TYPE":"U","SITE":"AFWTR","NORAD_CAT_ID":"51809","TLE_LINE2":"2 51809  53.2158 173.9630 0001741  49.9472 310.1673 15.08835013 35919","OBJECT_NAME":"STARLINK-3607","FILE":"3601613","DECAY_DATE":null,"MEAN_ANOMALY":"310.1673","TIME_SYSTEM":"UTC","SEMIMAJOR_AXIS":"6917.896"},{"ARG_OF_PERICENTER":"60.0911","OBJECT_TYPE":"PAYLOAD","LAUNCH_DATE":"2022-02-25","PERIAPSIS":"538.607","MEAN_MOTION_DOT":"0.00001701","APOAPSIS":"540.847","REF_FRAME":"TEME","GP_ID":"214678179","OBJECT_ID":"2022-017AU","CLASSIFICATION_TYPE":"U","BSTAR":"0.00012491000000","SITE":"AFWTR","NORAD_CAT_ID":"51810","OBJECT_NAME":"STARLINK-3613","TLE_LINE2":"2 51810  53.2186 163.9006 0001619  60.0911 300.0242 15.08846174 35936","FILE":"3600948","DECAY_DATE":null,"MEAN_ANOMALY":"300.0242","SEMIMAJOR_AXIS":"6917.862","TIME_SYSTEM":"UTC","ECCENTRICITY":"0.00016190","EPOCH":"2022-10-10T09:47:10.049280","CENTER_NAME":"EARTH","RA_OF_ASC_NODE":"163.9006","REV_AT_EPOCH":"3593","MEAN_ELEMENT_THEORY":"SGP4","COUNTRY_CODE":"US","PERIOD":"95.437","MEAN_MOTION":"15.08846174","EPHEMERIS_TYPE":"0","MEAN_MOTION_DDOT":"0.0000000000000","INCLINATION":"53.2186","RCS_SIZE":"LARGE","ELEMENT_SET_NO":"999","TLE_LINE1":"1 51810U 22017AU  22283.40775520  .00001701  00000-0  12491-3 0  9993"},{"DECAY_DATE":null,"MEAN_ANOMALY":"310.2900","FILE":"3600948","SEMIMAJOR_AXIS":"6917.867","TIME_SYSTEM":"UTC","SITE":"AFWTR","NORAD_CAT_ID":"51811","TLE_LINE2":"2 51811  53.2158 175.7789 0001843  49.8253 310.2900 15.08844522 35757","OBJECT_NAME":"STARLINK-3569","REF_FRAME":"TEME","GP_ID":"214676929","OBJECT_ID":"2022-017AV","APOAPSIS":"541.007","CLASSIFICATION_TYPE":"U","BSTAR":"0.00012924000000","ARG_OF_PERICENTER":"49.8253","MEAN_MOTION_DOT":"0.00001770","OBJECT_TYPE":"PAYLOAD","PERIAPSIS":"538.457","LAUNCH_DATE":"2022-02-25","TLE_LINE1":"1 51811U 22017AV  22282.99002360  .00001770  00000-0  12924-3 0  9999","PERIOD":"95.437","COUNTRY_CODE":"US","RCS_SIZE":"LARGE","ELEMENT_SET_NO":"999","EPHEMERIS_TYPE":"0","MEAN_MOTION":"15.08844522","INCLINATION":"53.2158","MEAN_MOTION_DDOT":"0.0000000000000","MEAN_ELEMENT_THEORY":"SGP4","EPOCH":"2022-10-09T23:45:38.039040","ECCENTRICITY":"0.00018430","RA_OF_ASC_NODE":"175.7789","REV_AT_EPOCH":"3575","CENTER_NAME":"EARTH"}];
